NORAD_CAT_ID,OBJECT_NAME,OBJECT_TYPE,EPOCH,MEAN_MOTION,ECCENTRICITY,INCLINATION,RA_OF_ASC_NODE,ARG_OF_PERICENTER,MEAN_ANOMALY,BSTAR,MEAN_MOTION_DOT,MEAN_MOTION_DDOT,TLE_LINE0,TLE_LINE1,TLE_LINE2,SEMIMAJOR_AXIS,PERIOD,APOGEE,PERIGEE,DECAYED
55422.0,STARLINK-5006,PAYLOAD,2024-02-14 13:19:48,14.98329602,0.0002677,70.0019,185.7546,263.1635,96.922,3.8292e-05,3.64e-06,0.0,0 STARLINK-5006,1 55422U 23014AH  24045.55542549  .00000364  00000-0  38292-4 0  9993,2 55422  70.0019 185.7546 0002677 263.1635  96.9220 14.98329602 58602,6950.194,96.107,573.92,570.199,0.0
55422.0,STARLINK-5006,PAYLOAD,2024-02-14 16:32:04,14.98330435,0.0002661,70.0019,185.418,263.1606,96.925,4.7598e-05,4.75e-06,0.0,0 STARLINK-5006,1 55422U 23014AH  24045.68894478  .00000475  00000-0  47598-4 0  9990,2 55422  70.0019 185.4180 0002661 263.1606  96.9250 14.98330435 58625,6950.192,96.107,573.906,570.207,0.0
55422.0,STARLINK-5006,PAYLOAD,2024-02-15 11:45:41,14.98327144,0.0002715,70.0017,183.3981,263.4864,96.5986,-3.4302e-06,-1.34e-06,0.0,0 STARLINK-5006,1 55422U 23014AH  24046.49006847 -.00000134  00000-0 -34302-5 0  9999,2 55422  70.0017 183.3981 0002715 263.4864  96.5986 14.98327144 57802,6950.202,96.107,573.954,570.18,0.0
55422.0,STARLINK-5006,PAYLOAD,2024-02-15 13:21:50,14.98326946,0.000272,70.0017,183.2297,263.4725,96.6125,-5.8075e-06,-1.62e-06,0.0,0 STARLINK-5006,1 55422U 23014AH  24046.55682879 -.00000162  00000-0 -58075-5 0  9995,2 55422  70.0017 183.2297 0002720 263.4725  96.6125 14.98326946 58753,6950.202,96.107,573.958,570.177,0.0
55422.0,STARLINK-5006,PAYLOAD,2024-02-15 18:10:14,14.98327036,0.0002728,70.0016,182.7247,264.3219,95.7629,-5.7805e-06,-1.62e-06,0.0,0 STARLINK-5006,1 55422U 23014AH  24046.75710911 -.00000162  00000-0 -57805-5 0  9996,2 55422  70.0016 182.7247 0002728 264.3219  95.7629 14.98327036 58780,6950.202,96.107,573.963,570.171,0.0
55422.0,STARLINK-5006,PAYLOAD,2024-02-16 02:10:54,14.98341251,0.0002867,70.0015,181.8833,265.266,94.8171,-0.00014847,-1.865e-05,0.0,0 STARLINK-5006,1 55422U 23014AH  24047.09090306 -.00001865  00000-0 -14847-3 0  9991,2 55422  70.0015 181.8833 0002867 265.2660  94.8171 14.98341251 57892,6950.158,96.106,574.016,570.03,0.0
55422.0,STARLINK-5006,PAYLOAD,2024-02-16 14:59:58,14.98336049,0.000289,70.0013,180.5367,267.2515,92.8314,5.7468e-05,5.93e-06,0.0,0 STARLINK-5006,1 55422U 23014AH  24047.62498043  .00000593  00000-0  57468-4 0  9992,2 55422  70.0013 180.5367 0002890 267.2515  92.8314 14.98336049 58915,6950.174,96.107,574.048,570.031,0.0
55422.0,STARLINK-5006,PAYLOAD,2024-02-16 18:12:14,14.98338401,0.0002855,70.0013,180.2001,267.655,92.4282,8.3995e-05,9.1e-06,0.0,0 STARLINK-5006,1 55422U 23014AH  24047.75849777  .00000910  00000-0  83995-4 0  9997,2 55422  70.0013 180.2001 0002855 267.6550  92.4282 14.98338401 58937,6950.167,96.106,574.016,570.048,0.0
55422.0,STARLINK-5006,PAYLOAD,2024-02-17 11:49:44,14.98321111,0.0002755,70.0013,178.3476,264.6047,95.4797,-1.7424e-05,-3.01e-06,0.0,0 STARLINK-5006,1 55422U 23014AH  24048.49287136 -.00000301  00000-0 -17424-4 0  9994,2 55422  70.0013 178.3476 0002755 264.6047  95.4797 14.98321111 58101,6950.22,96.108,574.0,570.171,0.0
55422.0,STARLINK-5006,PAYLOAD,2024-02-17 15:02:00,14.98321442,0.0002884,70.0009,178.0107,270.1761,89.9067,-3.566e-05,-5.18e-06,0.0,0 STARLINK-5006,1 55422U 23014AH  24048.62639254 -.00000518  00000-0 -35660-4 0  9993,2 55422  70.0009 178.0107 0002884 270.1761  89.9067 14.98321442 59063,6950.219,96.108,574.089,570.08,0.0
55422.0,STARLINK-5006,PAYLOAD,2024-02-17 18:14:16,14.98321272,0.0002992,70.0012,177.6752,272.4116,87.67,-4.3304e-05,-6.1e-06,0.0,0 STARLINK-5006,1 55422U 23014AH  24048.75991368 -.00000610  00000-0 -43304-4 0  9991,2 55422  70.0012 177.6752 0002992 272.4116  87.6700 14.98321272 59089,6950.22,96.108,574.164,570.005,0.0
55422.0,STARLINK-5006,PAYLOAD,2024-02-18 11:51:44,14.98334738,0.0003164,70.0008,175.8232,273.61,86.4697,5.1764e-05,5.25e-06,0.0,0 STARLINK-5006,1 55422U 23014AH  24049.49426267  .00000525  00000-0  51764-4 0  9996,2 55422  70.0008 175.8232 0003164 273.6100  86.4697 14.98334738 58256,6950.178,96.107,574.242,569.844,0.0
55422.0,STARLINK-5006,PAYLOAD,2024-02-18 15:04:00,14.98339991,0.0003152,70.0007,175.4864,272.4918,87.588,6.2507e-05,6.53e-06,0.0,0 STARLINK-5006,1 55422U 23014AH  24049.62777851  .00000653  00000-0  62507-4 0  9998,2 55422  70.0007 175.4864 0003152 272.4918  87.5880 14.98339991 59212,6950.162,96.106,574.218,569.836,0.0
55422.0,STARLINK-5006,PAYLOAD,2024-02-18 18:16:15,14.98345439,0.0003116,70.0007,175.1491,272.0122,88.068,0.00011653,1.298e-05,0.0,0 STARLINK-5006,1 55422U 23014AH  24049.76129266  .00001298  00000-0  11653-3 0  9995,2 55422  70.0007 175.1491 0003116 272.0122  88.0680 14.98345439 58293,6950.145,96.106,574.176,569.844,0.0
55422.0,STARLINK-5006,PAYLOAD,2024-02-19 11:53:46,14.98319136,0.0002936,70.0018,173.2994,270.656,89.4262,4.4896e-05,4.43e-06,0.0,0 STARLINK-5006,1 55422U 23014AH  24050.49567139  .00000443  00000-0  44896-4 0  9999,2 55422  70.0018 173.2994 0002936 270.6560  89.4262 14.98319136 58400,6950.226,96.108,574.132,570.051,0.0
55422.0,STARLINK-5006,PAYLOAD,2024-02-19 15:06:01,14.98324669,0.0003204,70.0007,172.962,273.4814,86.5979,6.3374e-05,6.63e-06,0.0,0 STARLINK-5006,1 55422U 23014AH  24050.62918747  .00000663  00000-0  63374-4 0  9995,2 55422  70.0007 172.9620 0003204 273.4814  86.5979 14.98324669 59368,6950.209,96.107,574.301,569.848,0.0
55422.0,STARLINK-5006,PAYLOAD,2024-02-19 18:18:17,14.98327235,0.0003154,70.0006,172.6247,274.0308,86.049,8.9909e-05,9.8e-06,0.0,0 STARLINK-5006,1 55422U 23014AH  24050.76270546  .00000980  00000-0  89909-4 0  9992,2 55422  70.0006 172.6247 0003154 274.0308  86.0490 14.98327235 58441,6950.201,96.107,574.259,569.874,0.0
55422.0,STARLINK-5006,PAYLOAD,2024-02-20 13:31:54,14.98365092,0.0003072,70.0012,170.6063,269.659,90.4217,-0.00061637,-7.446e-05,0.0,0 STARLINK-5006,1 55422U 23014AH  24051.56382136 -.00007446  00000-0 -61637-3 0  9993,2 55422  70.0012 170.6063 0003072 269.6590  90.4217 14.98365092 59501,6950.084,96.105,574.084,569.814,0.0
55422.0,STARLINK-5006,PAYLOAD,2024-02-20 18:20:17,14.98365522,0.0003046,70.0012,170.1014,269.7399,90.3411,-0.00056136,-6.791e-05,0.0,0 STARLINK-5006,1 55422U 23014AH  24051.76409591 -.00006791  00000-0 -56136-3 0  9990,2 55422  70.0012 170.1014 0003046 269.7399  90.3411 14.98365522 58592,6950.083,96.105,574.065,569.831,0.0
55422.0,STARLINK-5006,PAYLOAD,2024-02-21 11:57:47,14.98329812,0.0002863,70.0013,168.2491,271.9561,88.127,9.0682e-05,9.89e-06,0.0,0 STARLINK-5006,1 55422U 23014AH  24052.49846316  .00000989  00000-0  90682-4 0  9997,2 55422  70.0013 168.2491 0002863 271.9561  88.1270 14.98329812 58705,6950.193,96.107,574.048,570.069,0.0
55422.0,STARLINK-5006,PAYLOAD,2024-02-21 13:33:55,14.98331004,0.0002814,70.0012,168.0806,267.8917,92.192,9.8939e-05,1.088e-05,0.0,0 STARLINK-5006,1 55422U 23014AH  24052.56522165  .00001088  00000-0  98939-4 0  9992,2 55422  70.0012 168.0806 0002814 267.8917  92.1920 14.98331004 59655,6950.19,96.107,574.011,570.099,0.0
55422.0,STARLINK-5006,PAYLOAD,2024-02-21 16:46:11,14.98332002,0.0002817,70.0013,167.7446,268.1496,91.934,0.00010444,1.153e-05,0.0,0 STARLINK-5006,1 55422U 23014AH  24052.69874095  .00001153  00000-0  10444-3 0  9995,2 55422  70.0013 167.7446 0002817 268.1496  91.9340 14.98332002 59675,6950.187,96.107,574.01,570.094,0.0
55422.0,STARLINK-5006,PAYLOAD,2024-02-22 11:59:48,14.98327431,0.0002794,70.0014,165.7251,267.8197,92.2642,-2.2823e-06,-1.2e-06,0.0,0 STARLINK-5006,1 55422U 23014AH  24053.49986590 -.00000120  00000-0 -22823-5 0  9999,2 55422  70.0014 165.7251 0002794 267.8197  92.2642 14.98327431 58854,6950.201,96.107,574.008,570.124,0.0
55422.0,STARLINK-5006,PAYLOAD,2024-02-22 13:35:56,14.98327123,0.0002683,70.0017,165.5573,261.5639,98.5216,2.0135e-05,1.47e-06,0.0,0 STARLINK-5006,1 55422U 23014AH  24053.56662542  .00000147  00000-0  20135-4 0  9995,2 55422  70.0017 165.5573 0002683 261.5639  98.5216 14.98327123 59801,6950.202,96.107,573.932,570.202,0.0
55422.0,STARLINK-5006,PAYLOAD,2024-02-22 16:48:12,14.98327191,0.0002645,70.0014,165.2199,263.0004,97.0855,1.5359e-05,9e-07,0.0,0 STARLINK-5006,1 55422U 23014AH  24053.70014563  .00000090  00000-0  15359-4 0  9994,2 55422  70.0014 165.2199 0002645 263.0004  97.0855 14.98327191 59820,6950.202,96.107,573.905,570.228,0.0
55422.0,STARLINK-5006,PAYLOAD,2024-02-23 12:01:48,14.98333958,0.0002935,70.001,163.2003,266.9358,93.1465,6.9246e-06,-1e-07,0.0,0 STARLINK-5006,1 55422U 23014AH  24054.50125999 -.00000010  00000-0  69246-5 0  9997,2 55422  70.0010 163.2003 0002935 266.9358  93.1465 14.98333958 59006,6950.181,96.107,574.086,570.006,0.0
55422.0,STARLINK-5006,PAYLOAD,2024-02-23 13:37:56,14.98334545,0.0002936,70.001,163.0317,268.2951,91.7872,-1.6427e-06,-1.13e-06,0.0,0 STARLINK-5006,1 55422U 23014AH  24054.56801990 -.00000113  00000-0 -16427-5 0  9993,2 55422  70.0010 163.0317 0002936 268.2951  91.7872 14.98334545 59950,6950.179,96.107,574.084,570.003,0.0
55422.0,STARLINK-5006,PAYLOAD,2024-02-23 16:50:12,14.98337868,0.0002921,70.0009,162.6952,267.2685,92.814,3.6059e-05,3.37e-06,0.0,0 STARLINK-5006,1 55422U 23014AH  24054.70153614  .00000337  00000-0  36059-4 0  9990,2 55422  70.0009 162.6952 0002921 267.2685  92.8140 14.98337868 59978,6950.169,96.106,574.064,570.003,0.0
55422.0,STARLINK-5006,PAYLOAD,2024-02-24 12:03:50,14.98324591,0.0002524,70.0018,160.6756,250.5104,109.5782,1.5458e-05,9.2e-07,0.0,0 STARLINK-5006,1 55422U 23014AH  24055.50266489  .00000092  00000-0  15458-4 0  9992,2 55422  70.0018 160.6756 0002524 250.5104 109.5782 14.98324591 59155,6950.21,96.107,573.829,570.32,0.0
55422.0,STARLINK-5006,PAYLOAD,2024-02-24 13:39:58,14.98328025,0.0002943,70.0008,160.5066,267.9104,92.1718,9.7238e-06,2.3e-07,0.0,0 STARLINK-5006,1 55422U 23014AH  24055.56942316  .00000023  00000-0  97238-5 0  9999,2 55422  70.0008 160.5066 0002943 267.9104  92.1718 14.98328025 60103,6950.199,96.107,574.109,570.019,0.0
